[{"OBJECT_NAME":"SVYATOBOR 1 (RS60S)","OBJECT_ID":"2023-091X","EPOCH":"2026-03-09T23:06:11.081664","MEAN_MOTION":15.2482043,"ECCENTRICITY":0.00111996,"INCLINATION":97.5206,"RA_OF_ASC_NODE":132.3062,"ARG_OF_PERICENTER":84.4206,"MEAN_ANOMALY":275.8308,"EPHEMERIS_TYPE":0,"CLASSIFICATION_TYPE":"U","NORAD_CAT_ID":57187,"ELEMENT_SET_NO":999,"REV_AT_EPOCH":14918,"BSTAR":0.00046454276,"MEAN_MOTION_DOT":0.00011484,"MEAN_MOTION_DDOT":0},{"OBJECT_NAME":"STARLINK-31144","OBJECT_ID":"2023-211R","EPOCH":"2026-03-09T01:30:41.403744","MEAN_MOTION":15.27577862,"ECCENTRICITY":0.00015079,"INCLINATION":42.9962,"RA_OF_ASC_NODE":88.3841,"ARG_OF_PERICENTER":239.6792,"MEAN_ANOMALY":120.3911,"EPHEMERIS_TYPE":0,"CLASSIFICATION_TYPE":"U","NORAD_CAT_ID":58682,"ELEMENT_SET_NO":999,"REV_AT_EPOCH":12237,"BSTAR":6.0885558e-5,"MEAN_MOTION_DOT":1.414e-5,"MEAN_MOTION_DDOT":0}]
